[{"OBJECT_NAME":"STARLINK-5210","OBJECT_ID":"2022-136AH","EPOCH":"2026-03-09T23:15:29.801952","MEAN_MOTION":15.08834611,"ECCENTRICITY":0.00013122,"INCLINATION":53.2195,"RA_OF_ASC_NODE":333.0485,"ARG_OF_PERICENTER":109.6373,"MEAN_ANOMALY":250.4761,"EPHEMERIS_TYPE":0,"CLASSIFICATION_TYPE":"U","NORAD_CAT_ID":54082,"ELEMENT_SET_NO":999,"REV_AT_EPOCH":18702,"BSTAR":-2.7081662e-5,"MEAN_MOTION_DOT":-7.19e-6,"MEAN_MOTION_DDOT":0},{"OBJECT_NAME":"PSLV DEB","OBJECT_ID":"2001-049AH","EPOCH":"2026-03-09T23:39:21.767904","MEAN_MOTION":14.98984537,"ECCENTRICITY":0.00513683,"INCLINATION":98.1237,"RA_OF_ASC_NODE":87.2704,"ARG_OF_PERICENTER":48.4953,"MEAN_ANOMALY":9.0267,"EPHEMERIS_TYPE":0,"CLASSIFICATION_TYPE":"U","NORAD_CAT_ID":27089,"ELEMENT_SET_NO":999,"REV_AT_EPOCH":31452,"BSTAR":0.000212521,"MEAN_MOTION_DOT":2.577e-5,"MEAN_MOTION_DDOT":0}]
